[{"OBJECT_NAME":"YAOGAN-43 01F","OBJECT_ID":"2024-148F","EPOCH":"2026-03-10T00:23:08.877408","MEAN_MOTION":15.29824616,"ECCENTRICITY":0.00057048,"INCLINATION":34.9925,"RA_OF_ASC_NODE":59.8891,"ARG_OF_PERICENTER":18.4862,"MEAN_ANOMALY":341.6062,"EPHEMERIS_TYPE":0,"CLASSIFICATION_TYPE":"U","NORAD_CAT_ID":60463,"ELEMENT_SET_NO":999,"REV_AT_EPOCH":8707,"BSTAR":0.00058388219,"MEAN_MOTION_DOT":0.00017308,"MEAN_MOTION_DDOT":0},{"OBJECT_NAME":"STARLINK-35657","OBJECT_ID":"2025-257V","EPOCH":"2026-03-09T17:10:55.913088","MEAN_MOTION":15.30196269,"ECCENTRICITY":7.493e-5,"INCLINATION":53.1573,"RA_OF_ASC_NODE":217.1722,"ARG_OF_PERICENTER":112.2619,"MEAN_ANOMALY":247.8461,"EPHEMERIS_TYPE":0,"CLASSIFICATION_TYPE":"U","NORAD_CAT_ID":66399,"ELEMENT_SET_NO":999,"REV_AT_EPOCH":1972,"BSTAR":0.00066214276,"MEAN_MOTION_DOT":0.000193,"MEAN_MOTION_DDOT":0}]
